{"type": "FeatureCollection", "features": [ {"type": "Feature", "properties": {"norad_id": 34790, "name": "COSMOS 2251 DEB", "group": "cosmos-2251-debris", "lat": 48.07724042193671, "lon": -117.06853631082778, "alt_km": 848.0757728290937, "timestamp": "2025-12-23T11:34:48.555646+00:00", "meta": {"OBJECT_NAME": "COSMOS 2251 DEB", "OBJECT_ID": "1993-036AAT", "EPOCH": "2025-12-23T01:56:29.963904", "MEAN_MOTION": 14.24664119, "ECCENTRICITY": 0.0100588, "INCLINATION": 74.0529, "RA_OF_ASC_NODE": 225.087, "ARG_OF_PERICENTER": 284.5236, "MEAN_ANOMALY": 226.3982, "EPHEMERIS_TYPE": 0, "CLASSIFICATION_TYPE": "U", "NORAD_CAT_ID": 34790, "ELEMENT_SET_NO": 999, "REV_AT_EPOCH": 86720, "BSTAR": 0.00052587, "MEAN_MOTION_DOT": 1.263e-05, "MEAN_MOTION_DDOT": 0}, "tle": {"line1": "1 34790U 93036AAT 25357.08090236  .00001263  00000+0  52587-3 0  9995", "line2": "2 34790  74.0529 225.0870 0100588 284.5236 226.3982 14.24664119867201"}}, "geometry": {"type": "Point", "coordinates": [-117.06853631082778, 48.07724042193671]}}, {"type": "Feature", "properties": {"norad_id": 34792, "name": "COSMOS 2251 DEB", "group": "cosmos-2251-debris", "lat": 48.11449274471328, "lon": -49.31843479153201, "alt_km": 704.9417103908945, "timestamp": "2025-12-23T11:34:48.555655+00:00", "meta": {"OBJECT_NAME": "COSMOS 2251 DEB", "OBJECT_ID": "1993-036AAV", "EPOCH": "2025-12-22T04:28:07.603968", "MEAN_MOTION": 14.5602851, "ECCENTRICITY": 0.00123771, "INCLINATION": 74.0175, "RA_OF_ASC_NODE": 151.7792, "ARG_OF_PERICENTER": 246.3273, "MEAN_ANOMALY": 290.8722, "EPHEMERIS_TYPE": 0, "CLASSIFICATION_TYPE": "U", "NORAD_CAT_ID": 34792, "ELEMENT_SET_NO": 999, "REV_AT_EPOCH": 87787, "BSTAR": 0.0010753031, "MEAN_MOTION_DOT": 4.713e-05, "MEAN_MOTION_DDOT": 0}, "tle": {"line1": "1 34792U 93036AAV 25356.18619912  .00004713  00000+0  10753-2 0  9996", "line2": "2 34792  74.0175 151.7792 0012377 246.3273 290.8722 14.56028510877879"}}, "geometry": {"type": "Point", "coordinates": [-49.31843479153201, 48.11449274471328]}}, {"type": "Feature", "properties": {"norad_id": 34793, "name": "COSMOS 2251 DEB", "group": "cosmos-2251-debris", "lat": -40.791230888066536, "lon": -143.8128739328047, "alt_km": 753.4382854598907, "timestamp": "2025-12-23T11:34:48.555664+00:00", "meta": {"OBJECT_NAME": "COSMOS 2251 DEB", "OBJECT_ID": "1993-036AAW", "EPOCH": "2025-12-23T02:27:36.858816", "MEAN_MOTION": 14.38660159, "ECCENTRICITY": 0.0050748, "INCLINATION": 74.0019, "RA_OF_ASC_NODE": 231.2224, "ARG_OF_PERICENTER": 22.7008, "MEAN_ANOMALY": 127.8194, "EPHEMERIS_TYPE": 0, "CLASSIFICATION_TYPE": "U", "NORAD_CAT_ID": 34793, "ELEMENT_SET_NO": 999, "REV_AT_EPOCH": 87479, "BSTAR": 0.00021426, "MEAN_MOTION_DOT": 6.4e-06, "MEAN_MOTION_DDOT": 0}, "tle": {"line1": "1 34793U 93036AAW 25357.10250994  .00000640  00000+0  21426-3 0  9996", "line2": "2 34793  74.0019 231.2224 0050748  22.7008 127.8194 14.38660159874798"}}, "geometry": {"type": "Point", "coordinates": [-143.8128739328047, -40.791230888066536]}}, {"type": "Feature", "properties": {"norad_id": 34796, "name": "COSMOS 2251 DEB", "group": "cosmos-2251-debris", "lat": 71.80506955260154, "lon": -103.18524645178039, "alt_km": 780.8491868207111, "timestamp": "2025-12-23T11:34:48.555687+00:00", "meta": {"OBJECT_NAME": "COSMOS 2251 DEB", "OBJECT_ID": "1993-036AAZ", "EPOCH": "2025-12-23T00:18:17.864064", "MEAN_MOTION": 14.48734486, "ECCENTRICITY": 0.0100281, "INCLINATION": 74.0288, "RA_OF_ASC_NODE": 197.0834, "ARG_OF_PERICENTER": 296.9424, "MEAN_ANOMALY": 214.3814, "EPHEMERIS_TYPE": 0, "CLASSIFICATION_TYPE": "U", "NORAD_CAT_ID": 34796, "ELEMENT_SET_NO": 999, "REV_AT_EPOCH": 88176, "BSTAR": 0.00057151, "MEAN_MOTION_DOT": 2.267e-05, "MEAN_MOTION_DDOT": 0}, "tle": {"line1": "1 34796U 93036AAZ 25357.01270676  .00002267  00000+0  57151-3 0  9999", "line2": "2 34796  74.0288 197.0834 0100281 296.9424 214.3814 14.48734486881762"}}, "geometry": {"type": "Point", "coordinates": [-103.18524645178039, 71.80506955260154]}}, {"type": "Feature", "properties": {"norad_id": 34797, "name": "COSMOS 2251 DEB", "group": "cosmos-2251-debris", "lat": -19.817973972755166, "lon": 74.02504412525887, "alt_km": 796.2603927321788, "timestamp": "2025-12-23T11:34:48.555702+00:00", "meta": {"OBJECT_NAME": "COSMOS 2251 DEB", "OBJECT_ID": "1993-036ABA", "EPOCH": "2025-12-22T12:22:54.757056", "MEAN_MOTION": 14.42950692, "ECCENTRICITY": 0.00710542, "INCLINATION": 73.9783, "RA_OF_ASC_NODE": 81.7691, "ARG_OF_PERICENTER": 193.6898, "MEAN_ANOMALY": 166.2334, "EPHEMERIS_TYPE": 0, "CLASSIFICATION_TYPE": "U", "NORAD_CAT_ID": 34797, "ELEMENT_SET_NO": 999, "REV_AT_EPOCH": 87556, "BSTAR": 0.0021692417, "MEAN_MOTION_DOT": 7.461e-05, "MEAN_MOTION_DDOT": 0}, "tle": {"line1": "1 34797U 93036ABA 25356.51591154  .00007461  00000+0  21692-2 0  9992", "line2": "2 34797  73.9783  81.7691 0071054 193.6898 166.2334 14.42950692875560"}}, "geometry": {"type": "Point", "coordinates": [74.02504412525887, -19.817973972755166]}}, {"type": "Feature", "properties": {"norad_id": 34814, "name": "COSMOS 2251 DEB", "group": "cosmos-2251-debris", "lat": 73.86850501630848, "lon": 38.28077310049509, "alt_km": 769.2892238495233, "timestamp": "2025-12-23T11:34:48.555719+00:00", "meta": {"OBJECT_NAME": "COSMOS 2251 DEB", "OBJECT_ID": "1993-036ABD", "EPOCH": "2025-12-22T07:27:06.710112", "MEAN_MOTION": 14.36931752, "ECCENTRICITY": 0.00555386, "INCLINATION": 73.8962, "RA_OF_ASC_NODE": 307.6876, "ARG_OF_PERICENTER": 195.2249, "MEAN_ANOMALY": 315.8046, "EPHEMERIS_TYPE": 0, "CLASSIFICATION_TYPE": "U", "NORAD_CAT_ID": 34814, "ELEMENT_SET_NO": 999, "REV_AT_EPOCH": 87470, "BSTAR": 0.00068943391, "MEAN_MOTION_DOT": 2.051e-05, "MEAN_MOTION_DDOT": 0}, "tle": {"line1": "1 34814U 93036ABD 25356.31049433  .00002051  00000+0  68943-3 0  9999", "line2": "2 34814  73.8962 307.6876 0055538 195.2249 315.8046 14.36931752874706"}}, "geometry": {"type": "Point", "coordinates": [38.28077310049509, 73.86850501630848]}}, {"type": "Feature", "properties": {"norad_id": 34815, "name": "COSMOS 2251 DEB", "group": "cosmos-2251-debris", "lat": 46.35204052886525, "lon": -121.83927029770143, "alt_km": 651.2626904107292, "timestamp": "2025-12-23T11:34:48.555729+00:00", "meta": {"OBJECT_NAME": "COSMOS 2251 DEB", "OBJECT_ID": "1993-036ABE", "EPOCH": "2025-12-21T18:45:31.869504", "MEAN_MOTION": 14.78405815, "ECCENTRICITY": 0.00588158, "INCLINATION": 74.044, "RA_OF_ASC_NODE": 224.0458, "ARG_OF_PERICENTER": 291.2324, "MEAN_ANOMALY": 68.2575, "EPHEMERIS_TYPE": 0, "CLASSIFICATION_TYPE": "U", "NORAD_CAT_ID": 34815, "ELEMENT_SET_NO": 999, "REV_AT_EPOCH": 88761, "BSTAR": 0.00055531723, "MEAN_MOTION_DOT": 4.13e-05, "MEAN_MOTION_DDOT": 0}, "tle": {"line1": "1 34815U 93036ABE 25355.78161886  .00004130  00000+0  55532-3 0  9997", "line2": "2 34815  74.0440 224.0458 0058815 291.2324  68.2575 14.78405815887613"}}, "geometry": {"type": "Point", "coordinates": [-121.83927029770143, 46.35204052886525]}}, {"type": "Feature", "properties": {"norad_id": 34816, "name": "COSMOS 2251 DEB", "group": "cosmos-2251-debris", "lat": 37.820201310201256, "lon": 138.55994408642815, "alt_km": 1271.5368684242867, "timestamp": "2025-12-23T11:34:48.555739+00:00", "meta": {"OBJECT_NAME": "COSMOS 2251 DEB", "OBJECT_ID": "1993-036ABF", "EPOCH": "2025-12-23T03:24:36.727200", "MEAN_MOTION": 13.58351314, "ECCENTRICITY": 0.0373044, "INCLINATION": 73.8873, "RA_OF_ASC_NODE": 126.1492, "ARG_OF_PERICENTER": 188.8277, "MEAN_ANOMALY": 349.1718, "EPHEMERIS_TYPE": 0, "CLASSIFICATION_TYPE": "U", "NORAD_CAT_ID": 34816, "ELEMENT_SET_NO": 999, "REV_AT_EPOCH": 82924, "BSTAR": 0.0012758, "MEAN_MOTION_DOT": 1.439e-05, "MEAN_MOTION_DDOT": 0}, "tle": {"line1": "1 34816U 93036ABF 25357.14209175  .00001439  00000+0  12758-2 0  9995", "line2": "2 34816  73.8873 126.1492 0373044 188.8277 349.1718 13.58351314829249"}}, "geometry": {"type": "Point", "coordinates": [138.55994408642815, 37.820201310201256]}}, {"type": "Feature", "properties": {"norad_id": 34818, "name": "COSMOS 2251 DEB", "group": "cosmos-2251-debris", "lat": 14.321100678750867, "lon": 92.99672680409735, "alt_km": 786.5720788777408, "timestamp": "2025-12-23T11:34:48.555748+00:00", "meta": {"OBJECT_NAME": "COSMOS 2251 DEB", "OBJECT_ID": "1993-036ABH", "EPOCH": "2025-12-22T05:26:11.246784", "MEAN_MOTION": 14.36978109, "ECCENTRICITY": 0.00245976, "INCLINATION": 74.0363, "RA_OF_ASC_NODE": 279.4958, "ARG_OF_PERICENTER": 353.0026, "MEAN_ANOMALY": 157.1903, "EPHEMERIS_TYPE": 0, "CLASSIFICATION_TYPE": "U", "NORAD_CAT_ID": 34818, "ELEMENT_SET_NO": 999, "REV_AT_EPOCH": 87506, "BSTAR": 0.00018981942, "MEAN_MOTION_DOT": 5.38e-06, "MEAN_MOTION_DDOT": 0}, "tle": {"line1": "1 34818U 93036ABH 25356.22651906  .00000538  00000+0  18982-3 0  9993", "line2": "2 34818  74.0363 279.4958 0024597 353.0026 157.1903 14.36978109875069"}}, "geometry": {"type": "Point", "coordinates": [92.99672680409735, 14.321100678750867]}}, {"type": "Feature", "properties": {"norad_id": 34819, "name": "COSMOS 2251 DEB", "group": "cosmos-2251-debris", "lat": 46.25457183886023, "lon": 139.42765460408748, "alt_km": 686.1034180358083, "timestamp": "2025-12-23T11:34:48.555758+00:00", "meta": {"OBJECT_NAME": "COSMOS 2251 DEB", "OBJECT_ID": "1993-036ABJ", "EPOCH": "2025-12-23T02:19:29.502336", "MEAN_MOTION": 14.64114974, "ECCENTRICITY": 0.0015354, "INCLINATION": 74.0192, "RA_OF_ASC_NODE": 122.7469, "ARG_OF_PERICENTER": 217.4398, "MEAN_ANOMALY": 319.6, "EPHEMERIS_TYPE": 0, "CLASSIFICATION_TYPE": "U", "NORAD_CAT_ID": 34819, "ELEMENT_SET_NO": 999, "REV_AT_EPOCH": 88380, "BSTAR": 0.0016959, "MEAN_MOTION_DOT": 8.907e-05, "MEAN_MOTION_DDOT": 0}, "tle": {"line1": "1 34819U 93036ABJ 25357.09686924  .00008907  00000+0  16959-2 0  9997", "line2": "2 34819  74.0192 122.7469 0015354 217.4398 319.6000 14.64114974883800"}}, "geometry": {"type": "Point", "coordinates": [139.42765460408748, 46.25457183886023]}}]}